NORAD_CAT_ID,OBJECT_NAME,OBJECT_TYPE,EPOCH,MEAN_MOTION,ECCENTRICITY,INCLINATION,RA_OF_ASC_NODE,ARG_OF_PERICENTER,MEAN_ANOMALY,BSTAR,MEAN_MOTION_DOT,MEAN_MOTION_DDOT,TLE_LINE0,TLE_LINE1,TLE_LINE2,SEMIMAJOR_AXIS,PERIOD,APOGEE,PERIGEE,DECAYED
53892.0,STARLINK-5046,PAYLOAD,2024-06-11 02:30:54,15.0884635,8.62e-05,53.2188,301.7371,62.1521,297.9558,2.4359e-05,1e-06,0.0,0 STARLINK-5046,1 53892U 22119G   24163.10480138  .00000100  00000-0  24359-4 0  9991,2 53892  53.2188 301.7371 0000862  62.1521 297.9558 15.08846350 95167,6917.861,95.437,540.322,539.13,0.0
53892.0,STARLINK-5046,PAYLOAD,2024-06-11 13:38:37,15.08825532,0.0001054,53.2186,299.6558,74.5718,285.539,0.00032142,4.829e-05,0.0,0 STARLINK-5046,1 53892U 22119G   24163.56849054  .00004829  00000-0  32142-3 0  9997,2 53892  53.2186 299.6558 0001054  74.5718 285.5390 15.08825532 95656,6917.925,95.438,540.519,539.06,0.0
53892.0,STARLINK-5046,PAYLOAD,2024-06-11 16:49:22,15.08848334,0.0001205,53.218,299.0624,72.3442,287.7682,0.00026015,3.856e-05,0.0,0 STARLINK-5046,1 53892U 22119G   24163.70095938  .00003856  00000-0  26015-3 0  9998,2 53892  53.2180 299.0624 0001205  72.3442 287.7682 15.08848334 95671,6917.855,95.437,540.554,538.886,0.0
53892.0,STARLINK-5046,PAYLOAD,2024-06-12 15:04:48,15.08838631,0.0001326,53.2192,294.8994,74.7045,285.4093,-3.2076e-05,-7.98e-06,0.0,0 STARLINK-5046,1 53892U 22119G   24164.62833491 -.00000798  00000-0 -32076-4 0  9993,2 53892  53.2192 294.8994 0001326  74.7045 285.4093 15.08838631 95395,6917.885,95.438,540.667,538.832,0.0
53892.0,STARLINK-5046,PAYLOAD,2024-06-13 14:55:34,15.0885327,0.0001041,53.2178,290.4395,93.3967,266.7144,5.206e-05,5.41e-06,0.0,0 STARLINK-5046,1 53892U 22119G   24165.62192255  .00000541  00000-0  52060-4 0  9999,2 53892  53.2178 290.4395 0001041  93.3967 266.7144 15.08853270 95968,6917.84,95.437,540.425,538.985,0.0
53892.0,STARLINK-5046,PAYLOAD,2024-06-13 18:06:20,15.08856138,0.0001172,53.2179,289.8419,109.3974,250.7145,4.2883e-05,3.95e-06,0.0,0 STARLINK-5046,1 53892U 22119G   24165.75439952  .00000395  00000-0  42883-4 0  9990,2 53892  53.2179 289.8419 0001172 109.3974 250.7145 15.08856138 95981,6917.831,95.437,540.507,538.885,0.0
53892.0,STARLINK-5046,PAYLOAD,2024-06-14 14:46:21,15.08843019,0.0001002,53.217,285.9732,92.5483,267.5624,0.00010105,1.321e-05,0.0,0 STARLINK-5046,1 53892U 22119G   24166.61552738  .00001321  00000-0  10105-3 0  9995,2 53892  53.2170 285.9732 0001002  92.5483 267.5624 15.08843019 96115,6917.871,95.437,540.429,539.043,0.0
53892.0,STARLINK-5046,PAYLOAD,2024-06-14 17:57:07,15.0884028,0.000113,53.2178,285.3799,115.9195,244.1913,8.2564e-05,1.026e-05,0.0,0 STARLINK-5046,1 53892U 22119G   24166.74800867  .00001026  00000-0  82564-4 0  9999,2 53892  53.2178 285.3799 0001130 115.9195 244.1913 15.08840280 96133,6917.88,95.438,540.526,538.963,0.0
53892.0,STARLINK-5046,PAYLOAD,2024-06-15 13:01:45,15.08847485,0.000114,53.2176,281.8139,106.1254,253.9863,3.9585e-06,-2.25e-06,0.0,0 STARLINK-5046,1 53892U 22119G   24167.54288608 -.00000225  00000-0  39585-5 0  9998,2 53892  53.2176 281.8139 0001140 106.1254 253.9863 15.08847485 96258,6917.858,95.437,540.511,538.934,0.0
53892.0,STARLINK-5046,PAYLOAD,2024-06-15 17:47:54,15.08849257,0.0001123,53.2178,280.9203,100.5943,259.5175,4.2596e-05,3.9e-06,0.0,0 STARLINK-5046,1 53892U 22119G   24167.74160289  .00000390  00000-0  42596-4 0  9991,2 53892  53.2178 280.9203 0001123 100.5943 259.5175 15.08849257 96286,6917.852,95.437,540.494,538.94,0.0
53892.0,STARLINK-5046,PAYLOAD,2024-06-16 14:27:55,15.08841332,0.0001278,53.2188,277.0622,110.0459,250.0671,2.9133e-05,1.76e-06,0.0,0 STARLINK-5046,1 53892U 22119G   24168.60272887  .00000176  00000-0  29133-4 0  9999,2 53892  53.2188 277.0622 0001278 110.0459 250.0671 15.08841332 96416,6917.876,95.437,540.625,538.857,0.0
53892.0,STARLINK-5046,PAYLOAD,2024-06-17 11:07:57,15.08839715,0.0001151,53.2176,273.1955,100.0981,260.0141,-3.0986e-06,-3.37e-06,0.0,0 STARLINK-5046,1 53892U 22119G   24169.46385419 -.00000337  00000-0 -30986-5 0  9990,2 53892  53.2176 273.1955 0001151 100.0981 260.0141 15.08839715 96547,6917.881,95.438,540.543,538.95,0.0
53892.0,STARLINK-5046,PAYLOAD,2024-06-18 12:34:07,15.08838661,0.0001312,53.2189,268.4366,91.629,268.4852,8.3119e-05,1.035e-05,0.0,0 STARLINK-5046,1 53892U 22119G   24170.52369313  .00001035  00000-0  83119-4 0  9993,2 53892  53.2189 268.4366 0001312  91.6290 268.4852 15.08838661 96282,6917.884,95.438,540.657,538.842,0.0
53892.0,STARLINK-5046,PAYLOAD,2024-06-18 14:09:30,15.08841193,0.0001447,53.2175,268.1372,92.7205,267.3953,9.5875e-05,1.238e-05,0.0,0 STARLINK-5046,1 53892U 22119G   24170.58993139  .00001238  00000-0  95875-4 0  9995,2 53892  53.2175 268.1372 0001447  92.7205 267.3953 15.08841193 96710,6917.877,95.437,540.743,538.741,0.0
53892.0,STARLINK-5046,PAYLOAD,2024-06-19 14:00:17,15.08839592,0.0001326,53.2168,263.6769,86.0151,274.0993,9.3764e-05,1.205e-05,0.0,0 STARLINK-5046,1 53892U 22119G   24171.58353469  .00001205  00000-0  93764-4 0  9991,2 53892  53.2168 263.6769 0001326  86.0151 274.0993 15.08839592 96869,6917.882,95.438,540.664,538.829,0.0
53892.0,STARLINK-5046,PAYLOAD,2024-06-20 12:15:40,15.08846526,0.0001197,53.217,259.5131,92.97,267.1429,5.9103e-05,6.53e-06,0.0,0 STARLINK-5046,1 53892U 22119G   24172.51089058  .00000653  00000-0  59103-4 0  9990,2 53892  53.2170 259.5131 0001197  92.9700 267.1429 15.08846526 97000,6917.86,95.437,540.554,538.897,0.0
53892.0,STARLINK-5046,PAYLOAD,2024-06-20 15:26:26,15.0884938,0.0001057,53.2166,258.9183,92.9864,267.1249,8.8641e-05,1.124e-05,0.0,0 STARLINK-5046,1 53892U 22119G   24172.64336728  .00001124  00000-0  88641-4 0  9996,2 53892  53.2166 258.9183 0001057  92.9864 267.1249 15.08849380 96607,6917.852,95.437,540.448,538.986,0.0
53892.0,STARLINK-5046,PAYLOAD,2024-06-21 12:06:28,15.08843555,0.0001379,53.217,255.0512,100.211,259.9038,3.2301e-05,2.26e-06,0.0,0 STARLINK-5046,1 53892U 22119G   24173.50449290  .00000226  00000-0  32301-4 0  9995,2 53892  53.2170 255.0512 0001379 100.2110 259.9038 15.08843555 96737,6917.87,95.437,540.688,538.781,0.0
53892.0,STARLINK-5046,PAYLOAD,2024-06-22 11:57:15,15.0883971,0.0001441,53.2169,250.5911,102.3131,257.8023,1.1466e-05,-1.05e-06,0.0,0 STARLINK-5046,1 53892U 22119G   24174.49809609 -.00000105  00000-0  11466-4 0  9994,2 53892  53.2169 250.5911 0001441 102.3131 257.8023 15.08839710 96889,6917.881,95.438,540.743,538.749,0.0
53892.0,STARLINK-5046,PAYLOAD,2024-06-22 15:08:01,15.08840016,0.0001442,53.2169,249.9962,102.6285,257.4868,1.3973e-05,-6.6e-07,0.0,0 STARLINK-5046,1 53892U 22119G   24174.63057570 -.00000066  00000-0  13973-4 0  9993,2 53892  53.2169 249.9962 0001442 102.6285 257.4868 15.08840016 97325,6917.88,95.438,540.743,538.748,0.0
53892.0,STARLINK-5046,PAYLOAD,2024-06-23 10:12:39,15.08837044,0.0001392,53.2165,246.4282,103.2341,256.8806,2.985e-05,1.87e-06,0.0,0 STARLINK-5046,1 53892U 22119G   24175.42545849  .00000187  00000-0  29850-4 0  9996,2 53892  53.2165 246.4282 0001392 103.2341 256.8806 15.08837044 97447,6917.889,95.438,540.717,538.791,0.0
53892.0,STARLINK-5046,PAYLOAD,2024-06-24 10:03:26,15.08832974,0.0001684,53.2166,241.9678,111.8716,248.2455,-2.6659e-06,-3.3e-06,0.0,0 STARLINK-5046,1 53892U 22119G   24176.41906157 -.00000330  00000-0 -26659-5 0  9996,2 53892  53.2166 241.9678 0001684 111.8716 248.2455 15.08832974 97174,6917.902,95.438,540.932,538.602,0.0
53892.0,STARLINK-5046,PAYLOAD,2024-06-25 11:29:37,15.08835709,0.0001351,53.2166,237.2097,99.8178,260.2967,1.9621e-05,2.4e-07,0.0,0 STARLINK-5046,1 53892U 22119G   24177.47890422  .00000024  00000-0  19621-4 0  9998,2 53892  53.2166 237.2097 0001351  99.8178 260.2967 15.08835709 97334,6917.894,95.438,540.693,538.824,0.0
53892.0,STARLINK-5046,PAYLOAD,2024-06-26 11:20:22,15.08850292,0.0001641,53.2164,232.7468,123.6679,236.447,0.00019683,2.847e-05,0.0,0 STARLINK-5046,1 53892U 22119G   24178.47248746  .00002847  00000-0  19683-3 0  9997,2 53892  53.2164 232.7468 0001641 123.6679 236.4470 15.08850292 97482,6917.849,95.437,540.849,538.579,0.0
53892.0,STARLINK-5046,PAYLOAD,2024-06-27 11:11:10,15.0884065,0.0001311,53.2157,228.288,96.1437,263.9704,5.4982e-05,5.87e-06,0.0,0 STARLINK-5046,1 53892U 22119G   24179.46609945  .00000587  00000-0  54982-4 0  9990,2 53892  53.2157 228.2880 0001311  96.1437 263.9704 15.08840650 97631,6917.878,95.438,540.65,538.836,0.0
53892.0,STARLINK-5046,PAYLOAD,2024-06-28 11:01:57,15.08849416,0.0001335,53.2154,223.8277,103.7411,256.3729,-1.0842e-05,-4.61e-06,0.0,0 STARLINK-5046,1 53892U 22119G   24180.45969527 -.00000461  00000-0 -10842-4 0  9996,2 53892  53.2154 223.8277 0001335 103.7411 256.3729 15.08849416 98208,6917.852,95.437,540.64,538.793,0.0
53892.0,STARLINK-5046,PAYLOAD,2024-06-29 12:28:08,15.08839388,0.0001384,53.2152,219.071,98.9095,261.2053,5.5201e-05,5.91e-06,0.0,0 STARLINK-5046,1 53892U 22119G   24181.51954023  .00000591  00000-0  55201-4 0  9999,2 53892  53.2152 219.0710 0001384  98.9095 261.2053 15.08839388 97944,6917.882,95.438,540.705,538.79,0.0
53892.0,STARLINK-5046,PAYLOAD,2024-06-30 02:46:37,15.08831586,0.0001512,53.216,216.3925,100.2856,259.8307,-1.5733e-05,-5.38e-06,0.0,0 STARLINK-5046,1 53892U 22119G   24182.11570960 -.00000538  00000-0 -15733-4 0  9999,2 53892  53.2160 216.3925 0001512 100.2856 259.8307 15.08831586 98034,6917.906,95.438,540.817,538.725,0.0
53892.0,STARLINK-5046,PAYLOAD,2024-06-30 07:32:46,15.08831893,0.0001474,53.2157,215.5006,99.7572,260.3586,-1.6626e-05,-5.52e-06,0.0,0 STARLINK-5046,1 53892U 22119G   24182.31442997 -.00000552  00000-0 -16626-4 0  9997,2 53892  53.2157 215.5006 0001474  99.7572 260.3586 15.08831893 98481,6917.905,95.438,540.79,538.75,0.0
53892.0,STARLINK-5046,PAYLOAD,2024-06-30 18:40:28,15.08835905,0.0001478,53.2159,213.4192,99.3763,260.7397,1.6414e-05,-2.7e-07,0.0,0 STARLINK-5046,1 53892U 22119G   24182.77810796 -.00000027  00000-0  16414-4 0  9994,2 53892  53.2159 213.4192 0001478  99.3763 260.7397 15.08835905 98558,6917.893,95.438,540.78,538.735,0.0
